NORAD_CAT_ID,OBJECT_NAME,OBJECT_TYPE,EPOCH,MEAN_MOTION,ECCENTRICITY,INCLINATION,RA_OF_ASC_NODE,ARG_OF_PERICENTER,MEAN_ANOMALY,BSTAR,MEAN_MOTION_DOT,MEAN_MOTION_DDOT,TLE_LINE0,TLE_LINE1,TLE_LINE2,SEMIMAJOR_AXIS,PERIOD,APOGEE,PERIGEE,DECAYED
50205.0,STARLINK-3260,PAYLOAD,2023-09-07 07:01:21,15.08844684,0.000148,53.2183,354.0072,92.4229,267.6932,0.0001029,1.35e-05,0.0,0 STARLINK-3260,1 50205U 21125BB  23250.29261327  .00001350  00000-0  10290-3 0  9991,2 50205  53.2183 354.0072 0001480  92.4229 267.6932 15.08844684 99111,6917.866,95.437,540.755,538.707,0.0
50205.0,STARLINK-3260,PAYLOAD,2023-09-08 10:02:55,15.08842894,0.0001564,53.2158,348.9495,100.7605,259.3563,5.4376e-05,5.78e-06,0.0,0 STARLINK-3260,1 50205U 21125BB  23251.41869321  .00000578  00000-0  54376-4 0  9999,2 50205  53.2158 348.9495 0001564 100.7605 259.3563 15.08842894 98813,6917.872,95.437,540.818,538.655,0.0
50205.0,STARLINK-3260,PAYLOAD,2023-09-08 13:13:41,15.08843185,0.0001452,53.2187,348.3587,83.4572,276.6585,4.9763e-05,5.04e-06,0.0,0 STARLINK-3260,1 50205U 21125BB  23251.55117375  .00000504  00000-0  49763-4 0  9992,2 50205  53.2187 348.3587 0001452  83.4572 276.6585 15.08843185 99302,6917.871,95.437,540.74,538.731,0.0
50205.0,STARLINK-3260,PAYLOAD,2023-09-09 09:53:42,15.08833927,0.0001426,53.2184,344.4931,81.1747,278.9406,5.9269e-05,6.55e-06,0.0,0 STARLINK-3260,1 50205U 21125BB  23252.41230057  .00000655  00000-0  59269-4 0  9990,2 50205  53.2184 344.4931 0001426  81.1747 278.9406 15.08833927 98960,6917.899,95.438,540.75,538.777,0.0
50205.0,STARLINK-3260,PAYLOAD,2023-09-09 13:04:28,15.08837222,0.0001455,53.2198,343.8992,94.9148,265.2011,6.9335e-05,8.16e-06,0.0,0 STARLINK-3260,1 50205U 21125BB  23252.54477846  .00000816  00000-0  69335-4 0  9997,2 50205  53.2198 343.8992 0001455  94.9148 265.2011 15.08837222 99452,6917.889,95.438,540.76,538.747,0.0
50205.0,STARLINK-3260,PAYLOAD,2023-09-09 16:15:14,15.08840034,0.0001616,53.2186,343.3027,98.0045,262.1131,9.2099e-05,1.178e-05,0.0,0 STARLINK-3260,1 50205U 21125BB  23252.67725618  .00001178  00000-0  92099-4 0  9999,2 50205  53.2186 343.3027 0001616  98.0045 262.1131 15.08840034 99008,6917.88,95.438,540.863,538.627,0.0
50205.0,STARLINK-3260,PAYLOAD,2023-09-10 11:19:52,15.08846455,0.000133,53.2187,339.7341,94.2627,265.8517,9.2591e-05,1.186e-05,0.0,0 STARLINK-3260,1 50205U 21125BB  23253.47213294  .00001186  00000-0  92591-4 0  9996,2 50205  53.2187 339.7341 0001330  94.2627 265.8517 15.08846455 99599,6917.861,95.437,540.646,538.806,0.0
50205.0,STARLINK-3260,PAYLOAD,2023-09-10 22:27:34,15.08845556,0.0001341,53.2182,337.6536,91.4364,268.6782,0.00014487,2.019e-05,0.0,0 STARLINK-3260,1 50205U 21125BB  23253.93581232  .00002019  00000-0  14487-3 0  9990,2 50205  53.2182 337.6536 0001341  91.4364 268.6782 15.08845556 99198,6917.863,95.437,540.656,538.801,0.0
50205.0,STARLINK-3260,PAYLOAD,2023-09-11 09:35:17,15.08828526,0.0001555,53.2206,335.5745,94.9793,265.1377,9.7414e-05,1.262e-05,0.0,0 STARLINK-3260,1 50205U 21125BB  23254.39950591  .00001262  00000-0  97414-4 0  9990,2 50205  53.2206 335.5745 0001555  94.9793 265.1377 15.08828526 99263,6917.915,95.438,540.856,538.705,0.0
50205.0,STARLINK-3260,PAYLOAD,2023-09-11 12:46:03,15.08835648,0.000138,53.2192,334.9789,93.141,266.974,5.3409e-05,5.62e-06,0.0,0 STARLINK-3260,1 50205U 21125BB  23254.53198278  .00000562  00000-0  53409-4 0  9990,2 50205  53.2192 334.9789 0001380  93.1410 266.9740 15.08835648 99751,6917.894,95.438,540.713,538.804,0.0
50205.0,STARLINK-3260,PAYLOAD,2023-09-11 22:18:21,15.08841744,0.0001345,53.2189,333.1945,93.0361,267.0785,3.3283e-05,2.42e-06,0.0,0 STARLINK-3260,1 50205U 21125BB  23254.92941979  .00000242  00000-0  33283-4 0  9990,2 50205  53.2189 333.1945 0001345  93.0361 267.0785 15.08841744 99347,6917.875,95.437,540.671,538.81,0.0
50205.0,STARLINK-3260,PAYLOAD,2023-09-12 12:36:49,15.08848574,0.000128,53.2183,330.5183,85.9627,274.1512,0.00016067,2.271e-05,0.0,0 STARLINK-3260,1 50205U 21125BB  23255.52557392  .00002271  00000-0  16067-3 0  9993,2 50205  53.2183 330.5183 0001280  85.9627 274.1512 15.08848574 99906,6917.854,95.437,540.605,538.834,0.0
50205.0,STARLINK-3260,PAYLOAD,2023-09-13 09:16:50,15.08846628,0.0001379,53.2178,326.6518,85.3576,274.7573,0.00024167,3.561e-05,0.0,0 STARLINK-3260,1 50205U 21125BB  23256.38669434  .00003561  00000-0  24167-3 0  9992,2 50205  53.2178 326.6518 0001379  85.3576 274.7573 15.08846628 99567,6917.86,95.437,540.679,538.771,0.0
50205.0,STARLINK-3260,PAYLOAD,2023-09-13 12:27:36,15.08853291,0.0001388,53.2175,326.0573,84.5836,275.5314,0.00027606,4.11e-05,0.0,0 STARLINK-3260,1 50205U 21125BB  23256.51917043  .00004110  00000-0  27606-3 0  9991,2 50205  53.2175 326.0573 0001388  84.5836 275.5314 15.08853291100052,6917.84,95.437,540.665,538.745,0.0
50205.0,STARLINK-3260,PAYLOAD,2023-09-13 21:59:56,15.08834392,0.0001732,53.2181,324.2739,70.6165,289.5015,-1.0557e-05,-4.56e-06,0.0,0 STARLINK-3260,1 50205U 21125BB  23256.91662201 -.00000456  00000-0 -10557-4 0  9997,2 50205  53.2181 324.2739 0001732  70.6165 289.5015 15.08834392 99643,6917.898,95.438,540.961,538.564,0.0
50205.0,STARLINK-3260,PAYLOAD,2023-09-14 10:43:01,15.08825493,0.0001395,53.2179,321.8934,103.0989,257.0159,-0.00015493,-2.752e-05,0.0,0 STARLINK-3260,1 50205U 21125BB  23257.44655038 -.00002752  00000-0 -15493-3 0  9990,2 50205  53.2179 321.8934 0001395 103.0989 257.0159 15.08825493 99720,6917.925,95.438,540.755,538.825,0.0
50205.0,STARLINK-3260,PAYLOAD,2023-09-15 10:33:49,15.08841466,0.0001489,53.217,317.4329,70.321,289.7943,0.0006466,0.00010018,0.0,0 STARLINK-3260,1 50205U 21125BB  23258.44015764  .00010018  00000-0  64660-3 0  9999,2 50205  53.2170 317.4329 0001489  70.3210 289.7943 15.08841466 99874,6917.876,95.437,540.771,538.711,0.0
50205.0,STARLINK-3260,PAYLOAD,2023-09-16 13:35:22,15.08870956,0.000161,53.2169,312.378,64.5321,295.5838,0.00080338,0.00012532,0.0,0 STARLINK-3260,1 50205U 21125BB  23259.56622765  .00012532  00000-0  80338-3 0  9991,2 50205  53.2169 312.3780 0001610  64.5321 295.5838 15.08870956100519,6917.786,95.436,540.765,538.537,0.0
50205.0,STARLINK-3260,PAYLOAD,2023-09-17 10:15:22,15.0886014,0.0001513,53.2174,308.5126,80.3782,279.7381,0.0005733,8.853e-05,0.0,0 STARLINK-3260,1 50205U 21125BB  23260.42734393  .00008853  00000-0  57330-3 0  9996,2 50205  53.2174 308.5126 0001513  80.3782 279.7381 15.08860140100178,6917.819,95.436,540.73,538.637,0.0
50205.0,STARLINK-3260,PAYLOAD,2023-09-17 11:50:45,15.08862202,0.0001632,53.2178,308.2161,80.931,279.1867,0.00047252,7.245e-05,0.0,0 STARLINK-3260,1 50205U 21125BB  23260.49358329  .00007245  00000-0  47252-3 0  9990,2 50205  53.2178 308.2161 0001632  80.9310 279.1867 15.08862202100650,6917.813,95.436,540.807,538.549,0.0
50205.0,STARLINK-3260,PAYLOAD,2023-09-17 19:47:41,15.0884889,0.0001704,53.218,306.7294,77.3104,282.8078,0.00014186,1.971e-05,0.0,0 STARLINK-3260,1 50205U 21125BB  23260.82478462  .00001971  00000-0  14186-3 0  9998,2 50205  53.2180 306.7294 0001704  77.3104 282.8078 15.08848890100230,6917.853,95.437,540.897,538.539,0.0
50205.0,STARLINK-3260,PAYLOAD,2023-09-18 08:30:46,15.08846849,0.000165,53.218,304.3501,82.9268,277.1912,-1.6346e-06,-3.14e-06,0.0,0 STARLINK-3260,1 50205U 21125BB  23261.35470281 -.00000314  00000-0 -16346-5 0  9992,2 50205  53.2180 304.3501 0001650  82.9268 277.1912 15.08846849100784,6917.859,95.437,540.866,538.583,0.0
50205.0,STARLINK-3260,PAYLOAD,2023-09-18 19:38:28,15.0884426,0.0001641,53.2177,302.2675,90.6243,269.4937,3.8881e-05,3.31e-06,0.0,0 STARLINK-3260,1 50205U 21125BB  23261.81838281  .00000331  00000-0  38881-4 0  9995,2 50205  53.2177 302.2675 0001641  90.6243 269.4937 15.08844260100852,6917.867,95.437,540.868,538.597,0.0
50205.0,STARLINK-3260,PAYLOAD,2023-09-19 02:00:01,15.08840736,0.00016,53.2179,301.0785,86.2987,273.8189,0.0002155,3.143e-05,0.0,0 STARLINK-3260,1 50205U 21125BB  23262.08334590  .00003143  00000-0  21550-3 0  9997,2 50205  53.2179 301.0785 0001600  86.2987 273.8189 15.08840736100429,6917.878,95.438,540.85,538.636,0.0
50205.0,STARLINK-3260,PAYLOAD,2023-09-19 09:56:55,15.08854203,0.0001783,53.2181,299.5922,91.8561,268.2635,0.00016241,2.299e-05,0.0,0 STARLINK-3260,1 50205U 21125BB  23262.41453690  .00002299  00000-0  16241-3 0  9999,2 50205  53.2181 299.5922 0001783  91.8561 268.2635 15.08854203100471,6917.837,95.437,540.935,538.469,0.0
50205.0,STARLINK-3260,PAYLOAD,2023-09-20 01:50:48,15.0883429,0.0001978,53.2171,296.6181,82.134,277.9876,-4.5661e-05,-1.015e-05,0.0,0 STARLINK-3260,1 50205U 21125BB  23263.07694727 -.00001015  00000-0 -45661-4 0  9996,2 50205  53.2171 296.6181 0001978  82.1340 277.9876 15.08834290100578,6917.898,95.438,541.131,538.394,0.0
50205.0,STARLINK-3260,PAYLOAD,2023-09-20 09:47:44,15.08832571,0.0001608,53.2173,295.131,93.4026,266.715,-3.6483e-05,-8.68e-06,0.0,0 STARLINK-3260,1 50205U 21125BB  23263.40814918 -.00000868  00000-0 -36483-4 0  9996,2 50205  53.2173 295.1310 0001608  93.4026 266.7150 15.08832571101093,6917.903,95.438,540.88,538.656,0.0
50205.0,STARLINK-3260,PAYLOAD,2023-09-20 19:20:03,15.08832074,0.0001608,53.2173,293.3468,91.9549,268.1627,4.2467e-05,3.88e-06,0.0,0 STARLINK-3260,1 50205U 21125BB  23263.80559159  .00000388  00000-0  42467-4 0  9997,2 50205  53.2173 293.3468 0001608  91.9549 268.1627 15.08832074101150,6917.905,95.438,540.882,538.657,0.0
50205.0,STARLINK-3260,PAYLOAD,2023-09-21 09:38:31,15.08835984,0.0001539,53.2161,290.669,95.2478,264.869,0.00040237,6.121e-05,0.0,0 STARLINK-3260,1 50205U 21125BB  23264.40175534  .00006121  00000-0  40237-3 0  9998,2 50205  53.2161 290.6690 0001539  95.2478 264.8690 15.08835984100778,6917.893,95.438,540.822,538.693,0.0
50205.0,STARLINK-3260,PAYLOAD,2023-09-22 07:53:55,15.08847443,0.0001533,53.2164,286.5064,93.6655,266.4512,0.0004393,6.712e-05,0.0,0 STARLINK-3260,1 50205U 21125BB  23265.32911475  .00006712  00000-0  43930-3 0  9991,2 50205  53.2164 286.5064 0001533  93.6655 266.4512 15.08847443101385,6917.858,95.437,540.783,538.662,0.0
